{"type": "FeatureCollection", "crs": {"type": "name", "properties": {"name": "EPSG:8353"}}, "features": [{"type": "Feature", "properties": {"class": "slope_flat", "area_m2": 267.16, "source": "vision_model_tiled"}, "geometry": {"type": "Polygon", "coordinates": [[[-535666.3508227058, -1256438.1203565856], [-535670.3858060457, -1256480.5667891365], [-535672.5056019812, -1256480.3763240834], [-535672.7053757976, -1256482.4778576135], [-535715.3319386925, -1256478.4145270737], [-535715.0364162769, -1256475.3060111953], [-535673.4297910519, -1256479.2613410424], [-535669.4795310909, -1256437.8229387708], [-535666.3508227058, -1256438.1203565856]]]}}]}